{"type": "FeatureCollection", "features": [ {"type": "Feature", "properties": {"norad_id": 66615, "name": "STARLINK-35988", "group": "last-30-days", "lat": -32.77675296085295, "lon": 85.07675850697211, "alt_km": 446.0696973359263, "timestamp": "2025-12-23T18:59:30.756320+00:00", "meta": {"OBJECT_NAME": "STARLINK-35988", "OBJECT_ID": "2025-270AD", "EPOCH": "2025-12-22T18:19:33.981600", "MEAN_MOTION": 15.40722173, "ECCENTRICITY": 9.453e-05, "INCLINATION": 42.9966, "RA_OF_ASC_NODE": 134.7149, "ARG_OF_PERICENTER": 267.1486, "MEAN_ANOMALY": 92.9263, "EPHEMERIS_TYPE": 0, "CLASSIFICATION_TYPE": "U", "NORAD_CAT_ID": 66615, "ELEMENT_SET_NO": 999, "REV_AT_EPOCH": 573, "BSTAR": 0.00099727967, "MEAN_MOTION_DOT": 0.00041613, "MEAN_MOTION_DDOT": 0}, "tle": {"line1": "1 66615U 25270AD  25356.76358775  .00041613  00000+0  99728-3 0  9991", "line2": "2 66615  42.9966 134.7149 0000945 267.1486  92.9263 15.40722173  5731"}}, "geometry": {"type": "Point", "coordinates": [85.07675850697211, -32.77675296085295]}}, {"type": "Feature", "properties": {"norad_id": 66616, "name": "STARLINK-35391", "group": "last-30-days", "lat": 29.836941938040425, "lon": 166.53799719694535, "alt_km": 439.6754767404509, "timestamp": "2025-12-23T18:59:30.756329+00:00", "meta": {"OBJECT_NAME": "STARLINK-35391", "OBJECT_ID": "2025-270AE", "EPOCH": "2025-12-23T01:40:32.246688", "MEAN_MOTION": 15.40750542, "ECCENTRICITY": 0.00020512, "INCLINATION": 43.0009, "RA_OF_ASC_NODE": 132.7099, "ARG_OF_PERICENTER": 281.5109, "MEAN_ANOMALY": 78.5517, "EPHEMERIS_TYPE": 0, "CLASSIFICATION_TYPE": "U", "NORAD_CAT_ID": 66616, "ELEMENT_SET_NO": 999, "REV_AT_EPOCH": 605, "BSTAR": 0.0010378887, "MEAN_MOTION_DOT": 0.00043372, "MEAN_MOTION_DDOT": 0}, "tle": {"line1": "1 66616U 25270AE  25357.06981767  .00043372  00000+0  10379-2 0  9997", "line2": "2 66616  43.0009 132.7099 0002051 281.5109  78.5517 15.40750542  6055"}}, "geometry": {"type": "Point", "coordinates": [166.53799719694535, 29.836941938040425]}}, {"type": "Feature", "properties": {"norad_id": 66617, "name": "STARLINK-35940", "group": "last-30-days", "lat": -50.222251051432245, "lon": 19.238294599698992, "alt_km": 452.5756384948454, "timestamp": "2025-12-23T18:59:30.756338+00:00", "meta": {"OBJECT_NAME": "STARLINK-35940", "OBJECT_ID": "2025-271A", "EPOCH": "2025-12-23T02:18:53.108064", "MEAN_MOTION": 15.39621466, "ECCENTRICITY": 0.0001155, "INCLINATION": 53.1597, "RA_OF_ASC_NODE": 138.2821, "ARG_OF_PERICENTER": 58.3609, "MEAN_ANOMALY": 301.7508, "EPHEMERIS_TYPE": 0, "CLASSIFICATION_TYPE": "U", "NORAD_CAT_ID": 66617, "ELEMENT_SET_NO": 999, "REV_AT_EPOCH": 580, "BSTAR": 0.0010041821, "MEAN_MOTION_DOT": 0.00039979, "MEAN_MOTION_DDOT": 0}, "tle": {"line1": "1 66617U 25271A   25357.09644801  .00039979  00000+0  10042-2 0  9992", "line2": "2 66617  53.1597 138.2821 0001155  58.3609 301.7508 15.39621466  5806"}}, "geometry": {"type": "Point", "coordinates": [19.238294599698992, -50.222251051432245]}}, {"type": "Feature", "properties": {"norad_id": 66618, "name": "STARLINK-35970", "group": "last-30-days", "lat": -16.986128703453968, "lon": -32.370851669094804, "alt_km": 432.828920606411, "timestamp": "2025-12-23T18:59:30.756347+00:00", "meta": {"OBJECT_NAME": "STARLINK-35970", "OBJECT_ID": "2025-271B", "EPOCH": "2025-12-23T06:00:00.999648", "MEAN_MOTION": 15.45498914, "ECCENTRICITY": 0.00011644, "INCLINATION": 53.16, "RA_OF_ASC_NODE": 136.9645, "ARG_OF_PERICENTER": 80.9673, "MEAN_ANOMALY": 346.7634, "EPHEMERIS_TYPE": 0, "CLASSIFICATION_TYPE": "U", "NORAD_CAT_ID": 66618, "ELEMENT_SET_NO": 999, "REV_AT_EPOCH": 593, "BSTAR": 0.0018143463, "MEAN_MOTION_DOT": 0.00088997, "MEAN_MOTION_DDOT": 0}, "tle": {"line1": "1 66618U 25271B   25357.25001157  .00088997  00000+0  18143-2 0  9996", "line2": "2 66618  53.1600 136.9645 0001164  80.9673 346.7634 15.45498914  5933"}}, "geometry": {"type": "Point", "coordinates": [-32.370851669094804, -16.986128703453968]}}, {"type": "Feature", "properties": {"norad_id": 66619, "name": "STARLINK-35951", "group": "last-30-days", "lat": 40.598282127323884, "lon": -85.43514918930553, "alt_km": 440.9813544656772, "timestamp": "2025-12-23T18:59:30.756356+00:00", "meta": {"OBJECT_NAME": "STARLINK-35951", "OBJECT_ID": "2025-271C", "EPOCH": "2025-12-23T06:00:00.999648", "MEAN_MOTION": 15.39566769, "ECCENTRICITY": 0.00015324, "INCLINATION": 53.1605, "RA_OF_ASC_NODE": 137.0972, "ARG_OF_PERICENTER": 85.4042, "MEAN_ANOMALY": 278.113, "EPHEMERIS_TYPE": 0, "CLASSIFICATION_TYPE": "U", "NORAD_CAT_ID": 66619, "ELEMENT_SET_NO": 999, "REV_AT_EPOCH": 593, "BSTAR": 0.0020952062, "MEAN_MOTION_DOT": 0.0008419, "MEAN_MOTION_DDOT": 0}, "tle": {"line1": "1 66619U 25271C   25357.25001157  .00084190  00000+0  20952-2 0  9999", "line2": "2 66619  53.1605 137.0972 0001532  85.4042 278.1130 15.39566769  5939"}}, "geometry": {"type": "Point", "coordinates": [-85.43514918930553, 40.598282127323884]}}, {"type": "Feature", "properties": {"norad_id": 66620, "name": "STARLINK-35936", "group": "last-30-days", "lat": 50.26676238853046, "lon": -160.93438732024356, "alt_km": 439.81998461996045, "timestamp": "2025-12-23T18:59:30.756365+00:00", "meta": {"OBJECT_NAME": "STARLINK-35936", "OBJECT_ID": "2025-271D", "EPOCH": "2025-12-23T06:00:00.999648", "MEAN_MOTION": 15.39567083, "ECCENTRICITY": 8.289e-05, "INCLINATION": 53.1607, "RA_OF_ASC_NODE": 137.2014, "ARG_OF_PERICENTER": 73.5879, "MEAN_ANOMALY": 238.4214, "EPHEMERIS_TYPE": 0, "CLASSIFICATION_TYPE": "U", "NORAD_CAT_ID": 66620, "ELEMENT_SET_NO": 999, "REV_AT_EPOCH": 593, "BSTAR": 0.002000683, "MEAN_MOTION_DOT": 0.00080333, "MEAN_MOTION_DDOT": 0}, "tle": {"line1": "1 66620U 25271D   25357.25001157  .00080333  00000+0  20007-2 0  9997", "line2": "2 66620  53.1607 137.2014 0000828  73.5879 238.4214 15.39567083  5937"}}, "geometry": {"type": "Point", "coordinates": [-160.93438732024356, 50.26676238853046]}}, {"type": "Feature", "properties": {"norad_id": 66621, "name": "STARLINK-35847", "group": "last-30-days", "lat": -19.72532594944506, "lon": -30.023611776193892, "alt_km": 433.07523831093295, "timestamp": "2025-12-23T18:59:30.756376+00:00", "meta": {"OBJECT_NAME": "STARLINK-35847", "OBJECT_ID": "2025-271E", "EPOCH": "2025-12-23T06:00:00.999648", "MEAN_MOTION": 15.45500281, "ECCENTRICITY": 0.00011354, "INCLINATION": 53.1599, "RA_OF_ASC_NODE": 136.9571, "ARG_OF_PERICENTER": 83.7333, "MEAN_ANOMALY": 347.5335, "EPHEMERIS_TYPE": 0, "CLASSIFICATION_TYPE": "U", "NORAD_CAT_ID": 66621, "ELEMENT_SET_NO": 999, "REV_AT_EPOCH": 593, "BSTAR": 0.0017885884, "MEAN_MOTION_DOT": 0.00087717, "MEAN_MOTION_DDOT": 0}, "tle": {"line1": "1 66621U 25271E   25357.25001157  .00087717  00000+0  17886-2 0  9992", "line2": "2 66621  53.1599 136.9571 0001135  83.7333 347.5335 15.45500281  5932"}}, "geometry": {"type": "Point", "coordinates": [-30.023611776193892, -19.72532594944506]}}, {"type": "Feature", "properties": {"norad_id": 66622, "name": "STARLINK-35950", "group": "last-30-days", "lat": -2.311337381586249, "lon": 133.067084581476, "alt_km": 447.839752319981, "timestamp": "2025-12-23T18:59:30.756385+00:00", "meta": {"OBJECT_NAME": "STARLINK-35950", "OBJECT_ID": "2025-271F", "EPOCH": "2025-12-22T19:38:12.214752", "MEAN_MOTION": 15.39675938, "ECCENTRICITY": 0.00012221, "INCLINATION": 53.1612, "RA_OF_ASC_NODE": 139.3883, "ARG_OF_PERICENTER": 274.5298, "MEAN_ANOMALY": 85.5568, "EPHEMERIS_TYPE": 0, "CLASSIFICATION_TYPE": "U", "NORAD_CAT_ID": 66622, "ELEMENT_SET_NO": 999, "REV_AT_EPOCH": 576, "BSTAR": 0.0012007732, "MEAN_MOTION_DOT": 0.00048022, "MEAN_MOTION_DDOT": 0}, "tle": {"line1": "1 66622U 25271F   25356.81819693  .00048022  00000+0  12008-2 0  9993", "line2": "2 66622  53.1612 139.3883 0001222 274.5298  85.5568 15.39675938  5762"}}, "geometry": {"type": "Point", "coordinates": [133.067084581476, -2.311337381586249]}}, {"type": "Feature", "properties": {"norad_id": 66623, "name": "STARLINK-35920", "group": "last-30-days", "lat": -40.75024165484774, "lon": 94.66241235987087, "alt_km": 451.7699181003254, "timestamp": "2025-12-23T18:59:30.756395+00:00", "meta": {"OBJECT_NAME": "STARLINK-35920", "OBJECT_ID": "2025-271G", "EPOCH": "2025-12-22T19:51:35.812512", "MEAN_MOTION": 15.39628468, "ECCENTRICITY": 5.462e-05, "INCLINATION": 53.1605, "RA_OF_ASC_NODE": 139.4454, "ARG_OF_PERICENTER": 86.5592, "MEAN_ANOMALY": 273.5475, "EPHEMERIS_TYPE": 0, "CLASSIFICATION_TYPE": "U", "NORAD_CAT_ID": 66623, "ELEMENT_SET_NO": 999, "REV_AT_EPOCH": 576, "BSTAR": 0.00066585143, "MEAN_MOTION_DOT": 0.00026333, "MEAN_MOTION_DDOT": 0}, "tle": {"line1": "1 66623U 25271G   25356.82749783  .00026333  00000+0  66585-3 0  9998", "line2": "2 66623  53.1605 139.4454 0000546  86.5592 273.5475 15.39628468  5768"}}, "geometry": {"type": "Point", "coordinates": [94.66241235987087, -40.75024165484774]}}, {"type": "Feature", "properties": {"norad_id": 66624, "name": "STARLINK-35927", "group": "last-30-days", "lat": 22.959156699574983, "lon": -64.02130238892744, "alt_km": 440.02553067195913, "timestamp": "2025-12-23T18:59:30.756405+00:00", "meta": {"OBJECT_NAME": "STARLINK-35927", "OBJECT_ID": "2025-271H", "EPOCH": "2025-12-23T06:00:00.999648", "MEAN_MOTION": 15.4324038, "ECCENTRICITY": 0.0001305, "INCLINATION": 53.1604, "RA_OF_ASC_NODE": 137.0574, "ARG_OF_PERICENTER": 102.5832, "MEAN_ANOMALY": 281.3024, "EPHEMERIS_TYPE": 0, "CLASSIFICATION_TYPE": "U", "NORAD_CAT_ID": 66624, "ELEMENT_SET_NO": 999, "REV_AT_EPOCH": 593, "BSTAR": -0.048177272, "MEAN_MOTION_DOT": -0.0194476, "MEAN_MOTION_DDOT": 0}, "tle": {"line1": "1 66624U 25271H   25357.25001157 -.01944760  00000+0 -48177-1 0  9994", "line2": "2 66624  53.1604 137.0574 0001305 102.5832 281.3024 15.43240380  5939"}}, "geometry": {"type": "Point", "coordinates": [-64.02130238892744, 22.959156699574983]}}]}